[{"CCSDS_OMM_VERS":"2.0","COMMENT":"GENERATED VIA SPACE-TRACK.ORG API","CREATION_DATE":"2016-12-05T15:17:00","ORIGINATOR":"18 SPCS","OBJECT_NAME":"GALILEO-FM3","OBJECT_ID":"2012-055A","CENTER_NAME":"EARTH","REF_FRAME":"TEME","TIME_SYSTEM":"UTC","MEAN_ELEMENT_THEORY":"SGP4","EPOCH":"2016-12-03T22:10:26.427072","MEAN_MOTION":"1.70473783","ECCENTRICITY":"0.00023760","INCLINATION":"54.9157","RA_OF_ASC_NODE":"197.4381","ARG_OF_PERICENTER":"215.7110","MEAN_ANOMALY":"144.3730","EPHEMERIS_TYPE":"0","CLASSIFICATION_TYPE":"U","NORAD_CAT_ID":"38857","ELEMENT_SET_NO":"999","REV_AT_EPOCH":"2580","BSTAR":"0.00000000000000","MEAN_MOTION_DOT":"0.00000074","MEAN_MOTION_DDOT":"0.0000000000000","SEMIMAJOR_AXIS":"29600.345","PERIOD":"844.704","APOAPSIS":"23229.243","PERIAPSIS":"23215.177","OBJECT_TYPE":"PAYLOAD","RCS_SIZE":"LARGE","COUNTRY_CODE":"ESA","LAUNCH_DATE":"2012-10-12","SITE":"FRGUI","DECAY_DATE":null,"FILE":"2122612","GP_ID":"108627136","TLE_LINE0":"0 GALILEO-FM3","TLE_LINE1":"1 38857U 12055A   16338.92391698  .00000074  00000-0  00000+0 0  9992","TLE_LINE2":"2 38857  54.9157 197.4381 0002376 215.7110 144.3730  1.70473783 25809"},{"CCSDS_OMM_VERS":"2.0","COMMENT":"GENERATED VIA SPACE-TRACK.ORG API","CREATION_DATE":"2016-12-06T16:04:42","ORIGINATOR":"18 SPCS","OBJECT_NAME":"GALILEO-FM3","OBJECT_ID":"2012-055A","CENTER_NAME":"EARTH","REF_FRAME":"TEME","TIME_SYSTEM":"UTC","MEAN_ELEMENT_THEORY":"SGP4","EPOCH":"2016-12-05T16:24:27.931104","MEAN_MOTION":"1.70473777","ECCENTRICITY":"0.00018950","INCLINATION":"54.9166","RA_OF_ASC_NODE":"197.3922","ARG_OF_PERICENTER":"207.6943","MEAN_ANOMALY":"152.3832","EPHEMERIS_TYPE":"0","CLASSIFICATION_TYPE":"U","NORAD_CAT_ID":"38857","ELEMENT_SET_NO":"999","REV_AT_EPOCH":"2582","BSTAR":"0.00000000000000","MEAN_MOTION_DOT":"0.00000074","MEAN_MOTION_DDOT":"0.0000000000000","SEMIMAJOR_AXIS":"29600.345","PERIOD":"844.704","APOAPSIS":"23227.820","PERIAPSIS":"23216.601","OBJECT_TYPE":"PAYLOAD","RCS_SIZE":"LARGE","COUNTRY_CODE":"ESA","LAUNCH_DATE":"2012-10-12","SITE":"FRGUI","DECAY_DATE":null,"FILE":"2123101","GP_ID":"108653611","TLE_LINE0":"0 GALILEO-FM3","TLE_LINE1":"1 38857U 12055A   16340.68365661 +.00000074 +00000-0 +00000-0 0  9990","TLE_LINE2":"2 38857 054.9166 197.3922 0001895 207.6943 152.3832 01.70473777025825"},{"CCSDS_OMM_VERS":"2.0","COMMENT":"GENERATED VIA SPACE-TRACK.ORG API","CREATION_DATE":"2016-12-09T22:31:51","ORIGINATOR":"18 SPCS","OBJECT_NAME":"GALILEO-FM3","OBJECT_ID":"2012-055A","CENTER_NAME":"EARTH","REF_FRAME":"TEME","TIME_SYSTEM":"UTC","MEAN_ELEMENT_THEORY":"SGP4","EPOCH":"2016-12-09T04:52:33.526848","MEAN_MOTION":"1.70473710","ECCENTRICITY":"0.00018660","INCLINATION":"54.9168","RA_OF_ASC_NODE":"197.2943","ARG_OF_PERICENTER":"205.1844","MEAN_ANOMALY":"154.8976","EPHEMERIS_TYPE":"0","CLASSIFICATION_TYPE":"U","NORAD_CAT_ID":"38857","ELEMENT_SET_NO":"999","REV_AT_EPOCH":"2589","BSTAR":"0.00000000000000","MEAN_MOTION_DOT":"0.00000084","MEAN_MOTION_DDOT":"0.0000000000000","SEMIMAJOR_AXIS":"29600.353","PERIOD":"844.705","APOAPSIS":"23227.742","PERIAPSIS":"23216.695","OBJECT_TYPE":"PAYLOAD","RCS_SIZE":"LARGE","COUNTRY_CODE":"ESA","LAUNCH_DATE":"2012-10-12","SITE":"FRGUI","DECAY_DATE":null,"FILE":"2124527","GP_ID":"108711675","TLE_LINE0":"0 GALILEO-FM3","TLE_LINE1":"1 38857U 12055A   16344.20316582  .00000084  00000-0  00000+0 0  9990","TLE_LINE2":"2 38857  54.9168 197.2943 0001866 205.1844 154.8976  1.70473710 25890"},{"CCSDS_OMM_VERS":"2.0","COMMENT":"GENERATED VIA SPACE-TRACK.ORG API","CREATION_DATE":"2016-12-12T19:44:00","ORIGINATOR":"18 SPCS","OBJECT_NAME":"GALILEO-FM3","OBJECT_ID":"2012-055A","CENTER_NAME":"EARTH","REF_FRAME":"TEME","TIME_SYSTEM":"UTC","MEAN_ELEMENT_THEORY":"SGP4","EPOCH":"2016-12-10T23:06:36.708768","MEAN_MOTION":"1.70473696","ECCENTRICITY":"0.00018530","INCLINATION":"54.9166","RA_OF_ASC_NODE":"197.2455","ARG_OF_PERICENTER":"204.5735","MEAN_ANOMALY":"155.5133","EPHEMERIS_TYPE":"0","CLASSIFICATION_TYPE":"U","NORAD_CAT_ID":"38857","ELEMENT_SET_NO":"999","REV_AT_EPOCH":"2591","BSTAR":"0.00000000000000","MEAN_MOTION_DOT":"0.00000088","MEAN_MOTION_DDOT":"0.0000000000000","SEMIMAJOR_AXIS":"29600.355","PERIOD":"844.705","APOAPSIS":"23227.705","PERIAPSIS":"23216.735","OBJECT_TYPE":"PAYLOAD","RCS_SIZE":"LARGE","COUNTRY_CODE":"ESA","LAUNCH_DATE":"2012-10-12","SITE":"FRGUI","DECAY_DATE":null,"FILE":"2125784","GP_ID":"108765780","TLE_LINE0":"0 GALILEO-FM3","TLE_LINE1":"1 38857U 12055A   16345.96292487 +.00000088 +00000-0 +00000-0 0  9996","TLE_LINE2":"2 38857 054.9166 197.2455 0001853 204.5735 155.5133 01.70473696025913"},{"CCSDS_OMM_VERS":"2.0","COMMENT":"GENERATED VIA SPACE-TRACK.ORG API","CREATION_DATE":"2016-12-14T06:30:43","ORIGINATOR":"18 SPCS","OBJECT_NAME":"GALILEO-FM3","OBJECT_ID":"2012-055A","CENTER_NAME":"EARTH","REF_FRAME":"TEME","TIME_SYSTEM":"UTC","MEAN_ELEMENT_THEORY":"SGP4","EPOCH":"2016-12-13T21:29:59.781120","MEAN_MOTION":"1.70473712","ECCENTRICITY":"0.00018510","INCLINATION":"54.9164","RA_OF_ASC_NODE":"197.1642","ARG_OF_PERICENTER":"203.4379","MEAN_ANOMALY":"156.6413","EPHEMERIS_TYPE":"0","CLASSIFICATION_TYPE":"U","NORAD_CAT_ID":"38857","ELEMENT_SET_NO":"999","REV_AT_EPOCH":"2597","BSTAR":"0.00000000000000","MEAN_MOTION_DOT":"0.00000075","MEAN_MOTION_DDOT":"0.0000000000000","SEMIMAJOR_AXIS":"29600.353","PERIOD":"844.705","APOAPSIS":"23227.697","PERIAPSIS":"23216.739","OBJECT_TYPE":"PAYLOAD","RCS_SIZE":"LARGE","COUNTRY_CODE":"ESA","LAUNCH_DATE":"2012-10-12","SITE":"FRGUI","DECAY_DATE":null,"FILE":"2126410","GP_ID":"108787758","TLE_LINE0":"0 GALILEO-FM3","TLE_LINE1":"1 38857U 12055A   16348.89583080  .00000075  00000-0  00000+0 0  9998","TLE_LINE2":"2 38857  54.9164 197.1642 0001851 203.4379 156.6413  1.70473712 25976"},{"CCSDS_OMM_VERS":"2.0","COMMENT":"GENERATED VIA SPACE-TRACK.ORG API","CREATION_DATE":"2016-12-18T22:22:30","ORIGINATOR":"18 SPCS","OBJECT_NAME":"GALILEO-FM3","OBJECT_ID":"2012-055A","CENTER_NAME":"EARTH","REF_FRAME":"TEME","TIME_SYSTEM":"UTC","MEAN_ELEMENT_THEORY":"SGP4","EPOCH":"2016-12-18T14:07:22.078272","MEAN_MOTION":"1.70473792","ECCENTRICITY":"0.00018360","INCLINATION":"54.9163","RA_OF_ASC_NODE":"197.0337","ARG_OF_PERICENTER":"201.3481","MEAN_ANOMALY":"158.7005","EPHEMERIS_TYPE":"0","CLASSIFICATION_TYPE":"U","NORAD_CAT_ID":"38857","ELEMENT_SET_NO":"999","REV_AT_EPOCH":"2605","BSTAR":"0.00000000000000","MEAN_MOTION_DOT":"0.00000052","MEAN_MOTION_DDOT":"0.0000000000000","SEMIMAJOR_AXIS":"29600.344","PERIOD":"844.704","APOAPSIS":"23227.643","PERIAPSIS":"23216.774","OBJECT_TYPE":"PAYLOAD","RCS_SIZE":"LARGE","COUNTRY_CODE":"ESA","LAUNCH_DATE":"2012-10-12","SITE":"FRGUI","DECAY_DATE":null,"FILE":"2128285","GP_ID":"108872617","TLE_LINE0":"0 GALILEO-FM3","TLE_LINE1":"1 38857U 12055A   16353.58844998  .00000052  00000-0  00000+0 0  9993","TLE_LINE2":"2 38857  54.9163 197.0337 0001836 201.3481 158.7005  1.70473792 26057"},{"CCSDS_OMM_VERS":"2.0","COMMENT":"GENERATED VIA SPACE-TRACK.ORG API","CREATION_DATE":"2016-12-21T16:34:07","ORIGINATOR":"18 SPCS","OBJECT_NAME":"GALILEO-FM3","OBJECT_ID":"2012-055A","CENTER_NAME":"EARTH","REF_FRAME":"TEME","TIME_SYSTEM":"UTC","MEAN_ELEMENT_THEORY":"SGP4","EPOCH":"2016-12-19T18:16:43.559328","MEAN_MOTION":"1.70473830","ECCENTRICITY":"0.00018280","INCLINATION":"54.9163","RA_OF_ASC_NODE":"197.0011","ARG_OF_PERICENTER":"200.6528","MEAN_ANOMALY":"159.3946","EPHEMERIS_TYPE":"0","CLASSIFICATION_TYPE":"U","NORAD_CAT_ID":"38857","ELEMENT_SET_NO":"999","REV_AT_EPOCH":"2606","BSTAR":"0.00000000000000","MEAN_MOTION_DOT":"0.00000057","MEAN_MOTION_DDOT":"0.0000000000000","SEMIMAJOR_AXIS":"29600.339","PERIOD":"844.704","APOAPSIS":"23227.615","PERIAPSIS":"23216.793","OBJECT_TYPE":"PAYLOAD","RCS_SIZE":"LARGE","COUNTRY_CODE":"ESA","LAUNCH_DATE":"2012-10-12","SITE":"FRGUI","DECAY_DATE":null,"FILE":"2129526","GP_ID":"108925557","TLE_LINE0":"0 GALILEO-FM3","TLE_LINE1":"1 38857U 12055A   16354.76161527 +.00000057 +00000-0 +00000-0 0  9990","TLE_LINE2":"2 38857 054.9163 197.0011 0001828 200.6528 159.3946 01.70473830026066"},{"CCSDS_OMM_VERS":"2.0","COMMENT":"GENERATED VIA SPACE-TRACK.ORG API","CREATION_DATE":"2016-12-22T22:30:12","ORIGINATOR":"18 SPCS","OBJECT_NAME":"GALILEO-FM3","OBJECT_ID":"2012-055A","CENTER_NAME":"EARTH","REF_FRAME":"TEME","TIME_SYSTEM":"UTC","MEAN_ELEMENT_THEORY":"SGP4","EPOCH":"2016-12-22T16:40:08.631840","MEAN_MOTION":"1.70473884","ECCENTRICITY":"0.00018380","INCLINATION":"54.9163","RA_OF_ASC_NODE":"196.9198","ARG_OF_PERICENTER":"200.0799","MEAN_ANOMALY":"159.9743","EPHEMERIS_TYPE":"0","CLASSIFICATION_TYPE":"U","NORAD_CAT_ID":"38857","ELEMENT_SET_NO":"999","REV_AT_EPOCH":"2612","BSTAR":"0.00000000000000","MEAN_MOTION_DOT":"0.00000078","MEAN_MOTION_DDOT":"0.0000000000000","SEMIMAJOR_AXIS":"29600.333","PERIOD":"844.704","APOAPSIS":"23227.639","PERIAPSIS":"23216.757","OBJECT_TYPE":"PAYLOAD","RCS_SIZE":"LARGE","COUNTRY_CODE":"ESA","LAUNCH_DATE":"2012-10-12","SITE":"FRGUI","DECAY_DATE":null,"FILE":"2130040","GP_ID":"108945511","TLE_LINE0":"0 GALILEO-FM3","TLE_LINE1":"1 38857U 12055A   16357.69454435  .00000078  00000-0  00000+0 0  9990","TLE_LINE2":"2 38857  54.9163 196.9198 0001838 200.0799 159.9743  1.70473884 26122"}]